[{"OBJECT_NAME":"STARLINK-32374","OBJECT_ID":"2024-224G","EPOCH":"2026-03-09T06:18:43.497216","MEAN_MOTION":15.27589886,"ECCENTRICITY":0.00020188,"INCLINATION":43,"RA_OF_ASC_NODE":160.6086,"ARG_OF_PERICENTER":256.0897,"MEAN_ANOMALY":103.973,"EPHEMERIS_TYPE":0,"CLASSIFICATION_TYPE":"U","NORAD_CAT_ID":62145,"ELEMENT_SET_NO":999,"REV_AT_EPOCH":7241,"BSTAR":0.001285355,"MEAN_MOTION_DOT":0.00035289,"MEAN_MOTION_DDOT":0},{"OBJECT_NAME":"FLOCK 4G-21","OBJECT_ID":"2025-009AU","EPOCH":"2026-03-09T04:40:37.351200","MEAN_MOTION":15.28381075,"ECCENTRICITY":4.655e-5,"INCLINATION":97.4032,"RA_OF_ASC_NODE":151.1274,"ARG_OF_PERICENTER":329.5782,"MEAN_ANOMALY":30.5431,"EPHEMERIS_TYPE":0,"CLASSIFICATION_TYPE":"U","NORAD_CAT_ID":62651,"ELEMENT_SET_NO":999,"REV_AT_EPOCH":6367,"BSTAR":0.00049618643,"MEAN_MOTION_DOT":0.00013648,"MEAN_MOTION_DDOT":0}]
